[{"OBJECT_NAME":"FENGYUN 1C DEB","OBJECT_ID":"1999-025ZR","EPOCH":"2026-04-04T16:49:41.548512","MEAN_MOTION":14.16128087,"ECCENTRICITY":0.00746662,"INCLINATION":99.0196,"RA_OF_ASC_NODE":173.5975,"ARG_OF_PERICENTER":89.8419,"MEAN_ANOMALY":271.131,"EPHEMERIS_TYPE":0,"CLASSIFICATION_TYPE":"U","NORAD_CAT_ID":30304,"ELEMENT_SET_NO":999,"REV_AT_EPOCH":98417,"BSTAR":0.0018475916,"MEAN_MOTION_DOT":3.709e-5,"MEAN_MOTION_DDOT":0},{"OBJECT_NAME":"FENGYUN 1C DEB","OBJECT_ID":"1999-025ZS","EPOCH":"2026-04-05T18:38:46.599936","MEAN_MOTION":13.6029469,"ECCENTRICITY":0.0264939,"INCLINATION":98.5979,"RA_OF_ASC_NODE":27.0579,"ARG_OF_PERICENTER":162.4019,"MEAN_ANOMALY":267.388,"EPHEMERIS_TYPE":0,"CLASSIFICATION_TYPE":"U","NORAD_CAT_ID":30305,"ELEMENT_SET_NO":999,"REV_AT_EPOCH":95324,"BSTAR":0.00024937,"MEAN_MOTION_DOT":2.0e-6,"MEAN_MOTION_DDOT":0},{"OBJECT_NAME":"FENGYUN 1C DEB","OBJECT_ID":"1999-025ZT","EPOCH":"2026-04-05T19:56:52.166112","MEAN_MOTION":14.28881991,"ECCENTRICITY":0.0112263,"INCLINATION":98.5728,"RA_OF_ASC_NODE":140.0572,"ARG_OF_PERICENTER":23.7665,"MEAN_ANOMALY":336.8644,"EPHEMERIS_TYPE":0,"CLASSIFICATION_TYPE":"U","NORAD_CAT_ID":30306,"ELEMENT_SET_NO":999,"REV_AT_EPOCH":99310,"BSTAR":0.0012437,"MEAN_MOTION_DOT":3.317e-5,"MEAN_MOTION_DDOT":0},{"OBJECT_NAME":"FENGYUN 1C DEB","OBJECT_ID":"1999-025ZW","EPOCH":"2026-04-05T18:23:08.446272","MEAN_MOTION":13.93612427,"ECCENTRICITY":0.009236,"INCLINATION":99.2051,"RA_OF_ASC_NODE":157.5481,"ARG_OF_PERICENTER":242.1258,"MEAN_ANOMALY":117.0523,"EPHEMERIS_TYPE":0,"CLASSIFICATION_TYPE":"U","NORAD_CAT_ID":30309,"ELEMENT_SET_NO":999,"REV_AT_EPOCH":97621,"BSTAR":0.0002455,"MEAN_MOTION_DOT":2.89e-6,"MEAN_MOTION_DDOT":0},{"OBJECT_NAME":"FENGYUN 1C DEB","OBJECT_ID":"1999-025ZX","EPOCH":"2026-04-04T23:54:11.925504","MEAN_MOTION":14.08747611,"ECCENTRICITY":0.02407843,"INCLINATION":98.6561,"RA_OF_ASC_NODE":115.29,"ARG_OF_PERICENTER":36.5871,"MEAN_ANOMALY":325.1478,"EPHEMERIS_TYPE":0,"CLASSIFICATION_TYPE":"U","NORAD_CAT_ID":30310,"ELEMENT_SET_NO":999,"REV_AT_EPOCH":98326,"BSTAR":0.0010015796,"MEAN_MOTION_DOT":2.213e-5,"MEAN_MOTION_DDOT":0},{"OBJECT_NAME":"FENGYUN 1C DEB","OBJECT_ID":"1999-025ZY","EPOCH":"2026-04-05T19:11:33.173664","MEAN_MOTION":13.77990617,"ECCENTRICITY":0.0163909,"INCLINATION":99.132,"RA_OF_ASC_NODE":192.2342,"ARG_OF_PERICENTER":254.3842,"MEAN_ANOMALY":103.9168,"EPHEMERIS_TYPE":0,"CLASSIFICATION_TYPE":"U","NORAD_CAT_ID":30311,"ELEMENT_SET_NO":999,"REV_AT_EPOCH":96531,"BSTAR":0.00049493,"MEAN_MOTION_DOT":5.05e-6,"MEAN_MOTION_DDOT":0},{"OBJECT_NAME":"FENGYUN 1C DEB","OBJECT_ID":"1999-025ZZ","EPOCH":"2026-04-05T19:57:55.488672","MEAN_MOTION":14.48041171,"ECCENTRICITY":0.0011069,"INCLINATION":98.8556,"RA_OF_ASC_NODE":185.3711,"ARG_OF_PERICENTER":217.4573,"MEAN_ANOMALY":268.9021,"EPHEMERIS_TYPE":0,"CLASSIFICATION_TYPE":"U","NORAD_CAT_ID":30312,"ELEMENT_SET_NO":999,"REV_AT_EPOCH":99570,"BSTAR":0.0025969,"MEAN_MOTION_DOT":9.624e-5,"MEAN_MOTION_DDOT":0},{"OBJECT_NAME":"FENGYUN 1C DEB","OBJECT_ID":"1999-025AAA","EPOCH":"2026-04-05T17:45:53.122752","MEAN_MOTION":14.26576087,"ECCENTRICITY":0.0054821,"INCLINATION":98.8661,"RA_OF_ASC_NODE":188.3202,"ARG_OF_PERICENTER":8.2587,"MEAN_ANOMALY":143.0314,"EPHEMERIS_TYPE":0,"CLASSIFICATION_TYPE":"U","NORAD_CAT_ID":30313,"ELEMENT_SET_NO":999,"REV_AT_EPOCH":98714,"BSTAR":0.0019384,"MEAN_MOTION_DOT":4.709e-5,"MEAN_MOTION_DDOT":0},{"OBJECT_NAME":"FENGYUN 1C DEB","OBJECT_ID":"1999-025AAB","EPOCH":"2026-04-05T11:45:18.763200","MEAN_MOTION":14.01724426,"ECCENTRICITY":0.01424513,"INCLINATION":98.3937,"RA_OF_ASC_NODE":282.2728,"ARG_OF_PERICENTER":36.969,"MEAN_ANOMALY":324.1192,"EPHEMERIS_TYPE":0,"CLASSIFICATION_TYPE":"U","NORAD_CAT_ID":30314,"ELEMENT_SET_NO":999,"REV_AT_EPOCH":97702,"BSTAR":0.0010471484,"MEAN_MOTION_DOT":1.698e-5,"MEAN_MOTION_DDOT":0},{"OBJECT_NAME":"FENGYUN 1C DEB","OBJECT_ID":"1999-025AAC","EPOCH":"2026-04-05T14:44:49.250688","MEAN_MOTION":14.1924678,"ECCENTRICITY":0.0035752,"INCLINATION":98.6007,"RA_OF_ASC_NODE":106.7948,"ARG_OF_PERICENTER":31.7311,"MEAN_ANOMALY":85.9501,"EPHEMERIS_TYPE":0,"CLASSIFICATION_TYPE":"U","NORAD_CAT_ID":30315,"ELEMENT_SET_NO":999,"REV_AT_EPOCH":99322,"BSTAR":0.00042641,"MEAN_MOTION_DOT":8.57e-6,"MEAN_MOTION_DDOT":0},{"OBJECT_NAME":"FENGYUN 1C DEB","OBJECT_ID":"1999-025AAD","EPOCH":"2026-04-05T19:41:34.387296","MEAN_MOTION":14.58846539,"ECCENTRICITY":0.0034596,"INCLINATION":98.6457,"RA_OF_ASC_NODE":207.6032,"ARG_OF_PERICENTER":51.788,"MEAN_ANOMALY":308.6424,"EPHEMERIS_TYPE":0,"CLASSIFICATION_TYPE":"U","NORAD_CAT_ID":30316,"ELEMENT_SET_NO":999,"REV_AT_EPOCH":99998,"BSTAR":0.0022351,"MEAN_MOTION_DOT":0.00010509,"MEAN_MOTION_DDOT":0},{"OBJECT_NAME":"FENGYUN 1C DEB","OBJECT_ID":"1999-025AAE","EPOCH":"2026-04-05T20:47:16.437408","MEAN_MOTION":14.07010673,"ECCENTRICITY":0.0024338,"INCLINATION":98.7916,"RA_OF_ASC_NODE":98.1442,"ARG_OF_PERICENTER":317.2227,"MEAN_ANOMALY":42.7048,"EPHEMERIS_TYPE":0,"CLASSIFICATION_TYPE":"U","NORAD_CAT_ID":30317,"ELEMENT_SET_NO":999,"REV_AT_EPOCH":98618,"BSTAR":0.00025072,"MEAN_MOTION_DOT":3.77e-6,"MEAN_MOTION_DDOT":0},{"OBJECT_NAME":"FENGYUN 1C DEB","OBJECT_ID":"1999-025AAH","EPOCH":"2026-04-05T02:36:09.832032","MEAN_MOTION":13.98630183,"ECCENTRICITY":0.00852506,"INCLINATION":99.1672,"RA_OF_ASC_NODE":159.5088,"ARG_OF_PERICENTER":344.8035,"MEAN_ANOMALY":44.2559,"EPHEMERIS_TYPE":0,"CLASSIFICATION_TYPE":"U","NORAD_CAT_ID":30320,"ELEMENT_SET_NO":999,"REV_AT_EPOCH":97992,"BSTAR":0.00039989181,"MEAN_MOTION_DOT":5.47e-6,"MEAN_MOTION_DDOT":0},{"OBJECT_NAME":"FENGYUN 1C DEB","OBJECT_ID":"1999-025AAJ","EPOCH":"2026-04-05T19:08:52.361664","MEAN_MOTION":14.16808802,"ECCENTRICITY":0.0059424,"INCLINATION":98.6622,"RA_OF_ASC_NODE":96.7924,"ARG_OF_PERICENTER":269.9267,"MEAN_ANOMALY":269.7925,"EPHEMERIS_TYPE":0,"CLASSIFICATION_TYPE":"U","NORAD_CAT_ID":30321,"ELEMENT_SET_NO":999,"REV_AT_EPOCH":99158,"BSTAR":0.00038662,"MEAN_MOTION_DOT":7.44e-6,"MEAN_MOTION_DDOT":0},{"OBJECT_NAME":"FENGYUN 1C DEB","OBJECT_ID":"1999-025AAK","EPOCH":"2026-04-05T12:50:13.756416","MEAN_MOTION":14.0655829,"ECCENTRICITY":0.01260888,"INCLINATION":98.3925,"RA_OF_ASC_NODE":310.085,"ARG_OF_PERICENTER":289.8019,"MEAN_ANOMALY":68.9593,"EPHEMERIS_TYPE":0,"CLASSIFICATION_TYPE":"U","NORAD_CAT_ID":30322,"ELEMENT_SET_NO":999,"REV_AT_EPOCH":97799,"BSTAR":0.0013381379,"MEAN_MOTION_DOT":2.341e-5,"MEAN_MOTION_DDOT":0},{"OBJECT_NAME":"FENGYUN 1C DEB","OBJECT_ID":"1999-025AAL","EPOCH":"2026-04-05T12:23:47.188032","MEAN_MOTION":14.09147915,"ECCENTRICITY":0.00151449,"INCLINATION":98.7249,"RA_OF_ASC_NODE":116.3327,"ARG_OF_PERICENTER":294.0433,"MEAN_ANOMALY":65.9152,"EPHEMERIS_TYPE":0,"CLASSIFICATION_TYPE":"U","NORAD_CAT_ID":30325,"ELEMENT_SET_NO":999,"REV_AT_EPOCH":98618,"BSTAR":4.948887e-5,"MEAN_MOTION_DOT":4.3e-7,"MEAN_MOTION_DDOT":0}]
