FENGYUN 1C DEB          
1 30304U 99025ZR  26094.70117533  .00003709  00000+0  18476-2 0  9999
2 30304  99.0196 173.5975 0074666  89.8419 271.1310 14.16128087984173
FENGYUN 1C DEB          
1 30305U 99025ZS  26095.77692824  .00000200  00000+0  24937-3 0  9992
2 30305  98.5979  27.0579 0264939 162.4019 267.3880 13.60294690953243
FENGYUN 1C DEB          
1 30306U 99025ZT  26095.83115933  .00003317  00000+0  12437-2 0  9994
2 30306  98.5728 140.0572 0112263  23.7665 336.8644 14.28881991993103
FENGYUN 1C DEB          
1 30309U 99025ZW  26095.76606998  .00000289  00000+0  24550-3 0  9990
2 30309  99.2051 157.5481 0092360 242.1258 117.0523 13.93612427976210
FENGYUN 1C DEB          
1 30310U 99025ZX  26094.99597136  .00002213  00000+0  10016-2 0  9999
2 30310  98.6561 115.2900 0240784  36.5871 325.1478 14.08747611983264
FENGYUN 1C DEB          
1 30311U 99025ZY  26095.79968951  .00000505  00000+0  49493-3 0  9990
2 30311  99.1320 192.2342 0163909 254.3842 103.9168 13.77990617965315
FENGYUN 1C DEB          
1 30312U 99025ZZ  26095.83189223  .00009624  00000+0  25969-2 0  9995
2 30312  98.8556 185.3711 0011069 217.4573 268.9021 14.48041171995703
FENGYUN 1C DEB          
1 30313U 99025AAA 26095.74019818  .00004709  00000+0  19384-2 0  9991
2 30313  98.8661 188.3202 0054821   8.2587 143.0314 14.26576087987145
FENGYUN 1C DEB          
1 30314U 99025AAB 26095.48980050  .00001698  00000+0  10471-2 0  9990
2 30314  98.3937 282.2728 0142451  36.9690 324.1192 14.01724426977021
FENGYUN 1C DEB          
1 30315U 99025AAC 26095.61445892  .00000857  00000+0  42641-3 0  9997
2 30315  98.6007 106.7948 0035752  31.7311  85.9501 14.19246780993222
FENGYUN 1C DEB          
1 30316U 99025AAD 26095.82053689  .00010509  00000+0  22351-2 0  9990
2 30316  98.6457 207.6032 0034596  51.7880 308.6424 14.58846539999984
FENGYUN 1C DEB          
1 30317U 99025AAE 26095.86616247  .00000377  00000+0  25072-3 0  9996
2 30317  98.7916  98.1442 0024338 317.2227  42.7048 14.07010673986184
FENGYUN 1C DEB          
1 30320U 99025AAH 26095.10844713  .00000547  00000+0  39989-3 0  9999
2 30320  99.1672 159.5088 0085250 344.8035  44.2559 13.98630183979924
FENGYUN 1C DEB          
1 30321U 99025AAJ 26095.79782826  .00000744  00000+0  38662-3 0  9997
2 30321  98.6622  96.7924 0059424 269.9267 269.7925 14.16808802991586
FENGYUN 1C DEB          
1 30322U 99025AAK 26095.53488144  .00002341  00000+0  13381-2 0  9991
2 30322  98.3925 310.0850 0126088 289.8019  68.9593 14.06558290977998
FENGYUN 1C DEB          
1 30325U 99025AAL 26095.51651838  .00000043  00000+0  49489-4 0  9991
2 30325  98.7249 116.3327 0015144 294.0433  65.9152 14.09147915986188
